DTUSAT                  
1 27842U 03031C   08167.03524973  .00000021  00000-0  30052-4 0  3086
2 27842  98.7099 176.3241 0010292 100.3425 259.8906 14.20934965257208
CUTE-1 (CO-55)          
1 27844U 03031E   08167.25333185  .00000035  00000-0  36490-4 0  3284
2 27844  98.7144 175.5466 0010629 117.6072 242.6178 14.20583767257160
QUAKESAT                
1 27845U 03031F   08167.66972451  .00000052  00000-0  44716-4 0  3082
2 27845  98.7203 175.3343 0009730 133.0952 227.1033 14.20200665257148
AAU CUBESAT             
1 27846U 03031G   08166.96460510  .00000029  00000-0  33762-4 0  2513
2 27846  98.7088 176.2492 0010263 100.6299 259.6033 14.20935769257197
CANX-1                  
1 27847U 03031H   08166.96912009  .00000019  00000-0  28917-4 0  2648
2 27847  98.7098 176.2509 0010267  99.7026 260.5303 14.20922455257142
CUBESAT XI-IV (CO-57)   
1 27848U 03031J   08167.46248810  .00000034  00000-0  36394-4 0  2798
2 27848  98.7157 174.8497 0010509 121.0212 239.2003 14.20392436257166
UWE-1                   
1 28892U 05043C   08166.75323838  .00000206  00000-0  52843-4 0   749
2 28892  98.0969  60.4535 0018408  59.2549 301.0454 14.59636743140246
CUBESAT XI-V (CO-58)    
1 28895U 05043F   08167.74946542  .00000072  00000-0  24669-4 0   460
2 28895  98.0995  61.7848 0018826  56.1488 304.1507 14.59675724140279
NCUBE-2                 
1 28897U 05043H   08167.64562281  .00000094  00000-0  29122-4 0  5766
2 28897  98.0979  61.6144 0018379  56.5358 303.7604 14.59846704132546
CUTE-1.7+APD (CO-56)    
1 28941U 06005C   08167.72192445  .00020255  25092-5  15029-3 0  1338
2 28941  98.1083 278.2225 0166115  46.8957 314.6236 15.57216847129814
HIT-SAT (HO-59)         
1 29484U 06041F   08167.82715438  .01076901  30059-5  32619-3 0  4555
2 29484  98.2591 289.3871 0021670 336.4585  25.4445 16.26225682 98338
GENESAT-1               
1 29655U 06058C   08166.79360752  .00004791  00000-0  63773-4 0  4396
2 29655  40.0285 312.3586 0003699  40.6637 319.4452 15.58774863 85015
CSTB1                   
1 31122U 07012F   08167.64928944  .00000550  00000-0  13192-3 0  3631
2 31122  98.0426 233.2978 0085125 334.4421  25.2563 14.55132902 61851
MAST                    
1 31126U 07012K   08166.90053448  .00000023  00000-0  16171-4 0  3536
2 31126  98.0375 231.4248 0094409 339.8103  19.9359 14.53427772 61683
LIBERTAD-1              
1 31128U 07012M   08167.19877223 -.00000048  00000-0  00000+0 0  3565
2 31128  98.0380 230.7204 0102183 341.6413  18.1144 14.51952342 61642
POLYSAT CP3             
1 31129U 07012N   08167.17312448  .00000337  00000-0  89029-4 0   444
2 31129  98.0404 230.7431 0102137 341.9069  17.8498 14.52042719 61626
CAPE1                   
1 31130U 07012P   08167.12466916  .00000153  00000-0  46498-4 0  3308
2 31130  98.0406 230.6550 0102533 341.9495  17.8070 14.51969205 61425
POLYSAT CP4             
1 31132U 07012Q   08167.64763633 -.00000044  00000-0  82958-6 0  3373
2 31132  98.0428 233.2832 0085276 334.3860  25.3120 14.55122085 61723
NTS (CANX-6)            
1 32784U 08021B   08167.84991572 -.00000111  00000-0 -74202-5 0   752
2 32784  97.9951 227.7540 0016803 131.6070 228.6584 14.80943384  7207
CUTE-1.7+APD II         
1 32785U 08021C   08167.16061589  .00000137  00000-0  24380-4 0   762
2 32785  97.9923 227.0862 0015595 138.8525 221.3866 14.81366850  7108
COMPASS-1               
1 32787U 08021E   08167.90201347  .00000114  00000-0  21370-4 0   675
2 32787  97.9883 227.7991 0016591 138.6827 221.5633 14.81420021  7212
AAUSAT-II               
1 32788U 08021F   08167.15554377  .00000223  00000-0  35269-4 0   681
2 32788  97.9896 227.0645 0016825 141.3100 218.9322 14.81528747  7108
DELFI-C3                
1 32789U 08021G   08166.95715057  .00000279  00000-0  42425-4 0   765
2 32789  97.9916 226.8741 0016491 140.5981 219.6433 14.81405106  7073
CANX-2                  
1 32790U 08021H   08167.16066870  .00000935  00000-0  12626-3 0   648
2 32790  97.9915 227.0831 0016114 139.4919 220.7503 14.81379336  7084
SEEDS II                
1 32791U 08021J   08167.16352302  .00000139  00000-0  24672-4 0   648
2 32791  97.9931 227.0724 0016939 138.3210 221.9296 14.81279519  7074
PSLV DEB                
1 32797U 08021L   08167.62551261  .00001915  00000-0  24922-3 0   303
2 32797  97.9920 227.5674 0018032 141.3189 218.9246 14.81725932  5852
